*******************************************************************************
Ephemeris / PORT_LOGIN Sat Mar 13 15:00:51 2021 Pasadena, USA    / Horizons
*******************************************************************************
Target body name: Saturn (699)                    {source: sat427l_merged_DE438}
Center body name: Earth (399)                     {source: sat427l_merged_DE438}
Center-site name: Greenwich
*******************************************************************************
Start time      : A.D. 2021-Mar-13 00:00:00.0000 TDB
Stop  time      : A.D. 2025-Mar-13 00:00:00.0000 TDB
Step-size       : 1440 minutes
*******************************************************************************
Center geodetic : 0.00000000,51.4773207,0.0670693 {E-lon(deg),Lat(deg),Alt(km)}
Center cylindric: 0.00000000,3980.66470,4966.8438 {E-lon(deg),Dxy(km),Dz(km)}
Center pole/equ : High-precision EOP model        {East-longitude positive}
Center radii    : 6378.1 x 6378.1 x 6356.8 km     {Equator, meridian, pole}    
Output units    : AU-D
Output type     : GEOMETRIC cartesian states
Output format   : 3 (position, velocity, LT, range, range-rate)
EOP file        : eop.210312.p210603
EOP coverage    : DATA-BASED 1962-JAN-20 TO 2021-MAR-12. PREDICTS-> 2021-JUN-02
Reference frame : ICRF
*******************************************************************************
            JDTDB,            Calendar Date (TDB),                      X,                      Y,                      Z,                     VX,                     VY,                     VZ,                     LT,                     RG,                     RR,
**************************************************************************************************************************************************************************************************************************************************************************
$$SOE
2459976.500000000, A.D. 2023-Feb-01 00:00:00.0000,  8.886552178004923E+00, -5.502233864058780E+00, -2.641020126111380E+00,  1.601433353892973E-02,  1.499593984899629E-02,  6.247034678226428E-03,  6.226329525039082E-02,  1.078055538521669E+01,  4.016722392132601E-03,
2459977.500000000, A.D. 2023-Feb-02 00:00:00.0000,  8.902336084265920E+00, -5.487241834699804E+00, -2.634727649811561E+00,  1.580576872049278E-02,  1.520627482386831E-02,  6.337103423107338E-03,  6.228547770553376E-02,  1.078439615826423E+01,  3.762029477827113E-03,
2459978.500000000, A.D. 2023-Feb-03 00:00:00.0000,  8.917911462033443E+00, -5.472043313907646E+00, -2.628345847621489E+00,  1.559346939996636E-02,  1.541325557969153E-02,  6.425694368274430E-03,  6.230620095317123E-02,  1.078798427736424E+01,  3.506700535600978E-03,
2459979.500000000, A.D. 2023-Feb-04 00:00:00.0000,  8.933274577079931E+00, -5.456641654150785E+00, -2.621876190671024E+00,  1.537738683699091E-02,  1.561675897023949E-02,  6.512823991981709E-03,  6.232546118944480E-02,  1.079131908389904E+01,  3.250718745468713E-03,
2459980.500000000, A.D. 2023-Feb-05 00:00:00.0000,  8.948421788563339E+00, -5.441040376207765E+00, -2.615320142589378E+00,  1.515774683030208E-02,  1.581670056063720E-02,  6.598480678481559E-03,  6.234325533630594E-02,  1.079440004492107E+01,  2.994280929885967E-03,
2459981.500000000, A.D. 2023-Feb-06 00:00:00.0000,  8.963349598508985E+00, -5.425242961740779E+00, -2.608679181374431E+00,  1.493456660203220E-02,  1.601313032167151E-02,  6.682660454414193E-03,  6.235958070220986E-02,  1.079722669440377E+01,  2.737341969011271E-03,
2459982.500000000, A.D. 2023-Feb-07 00:00:00.0000,  8.978054529499419E+00, -5.409252915723432E+00, -2.601954785114806E+00,  1.470789863027605E-02,  1.620600902985024E-02,  6.765359231789795E-03,  6.237443456128108E-02,  1.079979856037645E+01,  2.479931023167237E-03,
2459983.500000000, A.D. 2023-Feb-08 00:00:00.0000,  8.992533143543342E+00, -5.393073794935543E+00, -2.595148434802909E+00,  1.447780711108522E-02,  1.639524779309963E-02,  6.846574742007562E-03,  6.238781432914352E-02,  1.080211519536826E+01,  2.222111216017317E-03,
2459984.500000000, A.D. 2023-Feb-09 00:00:00.0000,  9.006782104885055E+00, -5.376709188828603E+00, -2.588261623161024E+00,  1.424435865942857E-02,  1.658088007994938E-02,  6.926290630905966E-03,  6.239971782089360E-02,  1.080417622107487E+01,  1.963889862547252E-03,
2459985.500000000, A.D. 2023-Feb-10 00:00:00.0000,  9.020798096675556E+00, -5.360162716194147E+00, -2.581295851589226E+00,  1.400761696685824E-02,  1.676279958829827E-02,  7.004499221239389E-03,  6.241014283679266E-02,  1.080598125662334E+01,  1.705339467234764E-03,
2459986.500000000, A.D. 2023-Feb-11 00:00:00.0000,  9.034577941330539E+00, -5.343438006431673E+00, -2.574252646058778E+00,  1.376768085274492E-02,  1.694113651991143E-02,  7.081165515999356E-03,  6.241908771041579E-02,  1.080753001348113E+01,  1.446451122190212E-03,
2459987.500000000, A.D. 2023-Feb-12 00:00:00.0000,  9.048118407630914E+00, -5.326538612670871E+00, -2.567133551889243E+00,  1.352445169244472E-02,  1.711582843622037E-02,  7.156282560772771E-03,  6.242655012490728E-02,  1.080882209049712E+01,  1.187140104828620E-03,
2459988.500000000, A.D. 2023-Feb-13 00:00:00.0000,  9.061416251829039E+00, -5.309468170378488E+00, -2.559940131563183E+00,  1.327795259104269E-02,  1.728682414099943E-02,  7.229823810784544E-03,  6.243252776003764E-02,  1.080985708593603E+01,  9.274217650488256E-04,
2459989.500000000, A.D. 2023-Feb-14 00:00:00.0000,  9.074468252597667E+00, -5.292230363308613E+00, -2.552673976787389E+00,  1.302822288737748E-02,  1.745409453214261E-02,  7.301753577693820E-03,  6.243701837696110E-02,  1.081063461215372E+01,  6.673160131973841E-04,
2459990.500000000, A.D. 2023-Feb-15 00:00:00.0000,  9.087271168783984E+00, -5.274828866476897E+00, -2.545336719081131E+00,  1.277515317197023E-02,  1.761762249783438E-02,  7.372035723374908E-03,  6.244001946454238E-02,  1.081115423436061E+01,  4.067118153874719E-04,
2459991.500000000, A.D. 2023-Feb-16 00:00:00.0000,  9.099821674951858E+00, -5.257267479900815E+00, -2.537930025409580E+00,  1.251875629171747E-02,  1.777724105001142E-02,  7.440623107752870E-03,  6.244152829454688E-02,  1.081141548017750E+01,  1.456754485287347E-04,
2459992.500000000, A.D. 2023-Feb-17 00:00:00.0000,  9.112116437652558E+00, -5.239550088959732E+00, -2.530455621913916E+00,  1.225891752749272E-02,  1.793286185464523E-02,  7.507459657232256E-03,  6.244154220459314E-02,  1.081141788862736E+01, -1.158717130866415E-04,
2459993.500000000, A.D. 2023-Feb-18 00:00:00.0000,  9.124152050546961E+00, -5.221680824825245E+00, -2.522915287361753E+00,  1.199571389399918E-02,  1.808416279210272E-02,  7.572480293758595E-03,  6.244005871514226E-02,  1.081116103039131E+01, -3.777332375054846E-04,
2459994.500000000, A.D. 2023-Feb-19 00:00:00.0000,  9.135925256255486E+00, -5.203664047201976E+00, -2.515310882153684E+00,  1.172929678455823E-02,  1.823098483008227E-02,  7.635597661546788E-03,  6.243707658828744E-02,  1.081064469113244E+01, -6.397253503975188E-04,
2459995.500000000, A.D. 2023-Feb-20 00:00:00.0000,  9.147432945466644E+00, -5.185504263652317E+00, -2.507644351299619E+00,  1.145981638795906E-02,  1.837319770581019E-02,  7.696729576554253E-03,  6.243259559636620E-02,  1.080986883143222E+01, -9.016810159597477E-04,
2459996.500000000, A.D. 2023-Feb-21 00:00:00.0000,  9.158672132866302E+00, -5.167206131728150E+00, -2.499917710060223E+00,  1.118740660031232E-02,  1.851058241086728E-02,  7.755821631689326E-03,  6.242661638710893E-02,  1.080883356344169E+01, -1.163411541614295E-03,
2459997.500000000, A.D. 2023-Feb-22 00:00:00.0000,  9.169640099299182E+00, -5.148774514035039E+00, -2.492133026882589E+00,  1.091242318327754E-02,  1.864305669810099E-02,  7.812817083074672E-03,  6.241914130471225E-02,  1.080753929304591E+01, -1.424605644008024E-03,
2459998.500000000, A.D. 2023-Feb-23 00:00:00.0000,  9.180334375285485E+00, -5.130214293467834E+00, -2.484292407831532E+00,  1.063504752414897E-02,  1.877054209360286E-02,  7.867703751956355E-03,  6.241017377965234E-02,  1.080598661421341E+01, -1.685111070756201E-03,
2459999.500000000, A.D. 2023-Feb-24 00:00:00.0000,  9.190752775790811E+00, -5.111530432612837E+00, -2.476397968359382E+00,  1.035563343117105E-02,  1.889306270789603E-02,  7.920467838858879E-03,  6.239971863099478E-02,  1.080417636133954E+01, -1.944676582090401E-03,
2460000.500000000, A.D. 2023-Feb-25 00:00:00.0000,  9.200893369716473E+00, -5.092727786652571E+00, -2.468451827305222E+00,  1.007433009683381E-02,  1.901072299693767E-02,  7.971122494513041E-03,  6.238778140431467E-02,  1.080210949461087E+01, -2.203267070908176E-03,
2460001.500000000, A.D. 2023-Feb-26 00:00:00.0000,  9.210754361849595E+00, -5.073811151530037E+00, -2.460456083364376E+00,  9.791271458775994E-03,  1.912356503595637E-02,  8.019690159476437E-03,  6.237436790334864E-02,  1.079978701891323E+01, -2.460831554595461E-03,
2460002.500000000, A.D. 2023-Feb-27 00:00:00.0000,  9.220334096719457E+00, -5.054785318787326E+00, -2.452412809354542E+00,  9.506663314772850E-03,  1.923156571469577E-02,  8.066193860695054E-03,  6.235948435760448E-02,  1.079721001285246E+01, -2.717226138649539E-03,
2460003.500000000, A.D. 2023-Feb-28 00:00:00.0000,  9.229631148724501E+00, -5.035654977048432E+00, -2.444324068912444E+00,  9.220636602995474E-03,  1.933494365712127E-02,  8.110640044981434E-03,  6.234313762931121E-02,  1.079437966458670E+01, -2.972478653623415E-03,
2460004.500000000, A.D. 2023-Mar-01 00:00:00.0000,  9.238644118384821E+00, -5.016424692872300E+00, -2.436191903954096E+00,  8.933236217841433E-03,  1.943370824684964E-02,  8.153056024357242E-03,  6.232533415088093E-02,  1.079129708785357E+01, -3.226595698091239E-03,
2460005.500000000, A.D. 2023-Mar-02 00:00:00.0000,  9.247371708024904E+00, -4.997098967398463E+00, -2.428018341191656E+00,  8.644527947315345E-03,  1.952800612776675E-02,  8.193451921999341E-03,  6.230608046705960E-02,  1.078796341584070E+01, -3.479625039916827E-03,
